GLOBALSTAR M045 [-]     
1 25676U 99019A   23320.03792892 -.00000065  00000+0  25499-3 0  9997
2 25676  51.9945 155.9109 0001670 107.9563  60.2566 12.27019560122537
GLOBALSTAR M019 [-]     
1 25677U 99019B   23319.26156101 -.00000188  00000+0 -10227-2 0  9997
2 25677  51.9878 247.6963 0000204 204.1142 322.5789 12.13846117114718
GLOBALSTAR M044 [-]     
1 25678U 99019C   23319.65675564 -.00000087  00000+0 -51164-4 0  9995
2 25678  51.9939 125.4563 0006355  11.6415 113.7036 11.90227108102318
GLOBALSTAR M042 [-]     
1 25679U 99019D   23320.05789480 -.00000061  00000+0  28923-3 0  9992
2 25679  52.0013 245.8035 0002603 172.9004 200.2699 12.22051233114525
GLOBALSTAR M025 [-]     
1 25770U 99031A   23319.54848124 -.00000070  00000+0 -70735-4 0  9991
2 25770  51.9827  62.0321 0000893 218.7416 276.3047 11.22547066 74271
GLOBALSTAR M049 [-]     
1 25771U 99031B   23319.60820606 -.00000154  00000+0 -30820-2 0  9996
2 25771  51.9883  67.5288 0003629 121.5142 238.6009 11.12101842 52949
GLOBALSTAR M047 [-]     
1 25772U 99031C   23319.76020676 -.00000086  00000+0 -45087-3 0  9999
2 25772  51.9803 119.5120 0015881 351.9647   8.0902 11.31917323405490
GLOBALSTAR M052 [-]     
1 25773U 99031D   23319.93115873 -.00000085  00000+0 -64084-3 0  9990
2 25773  51.9838 183.6202 0001633 320.8190  52.2277 11.15047145413897
